[
  {
    "OBJECT_NAME": "FENGYUN 3E",
    "OBJECT_ID": "2021-062A",
    "EPOCH": "2025-06-21T19:51:56.261664",
    "MEAN_MOTION": 14.19867943,
    "ECCENTRICITY": 0.0002621,
    "INCLINATION": 98.7415,
    "RA_OF_ASC_NODE": 175.4072,
    "ARG_OF_PERICENTER": 65.8249,
    "MEAN_ANOMALY": 294.3201,
    "EPHEMERIS_TYPE": 0,
    "CLASSIFICATION_TYPE": "U",
    "NORAD_CAT_ID": 49008,
    "ELEMENT_SET_NO": 999,
    "REV_AT_EPOCH": 20544,
    "BSTAR": 2.1282e-05,
    "MEAN_MOTION_DOT": 1e-08,
    "MEAN_MOTION_DDOT": 0
  },
  {
    "OBJECT_NAME": "GOES 18",
    "OBJECT_ID": "2022-021A",
    "EPOCH": "2025-06-21T18:15:02.422944",
    "MEAN_MOTION": 1.00272166,
    "ECCENTRICITY": 4.23e-05,
    "INCLINATION": 0.0454,
    "RA_OF_ASC_NODE": 162.0266,
    "ARG_OF_PERICENTER": 40.0764,
    "MEAN_ANOMALY": 204.8509,
    "EPHEMERIS_TYPE": 0,
    "CLASSIFICATION_TYPE": "U",
    "NORAD_CAT_ID": 51850,
    "ELEMENT_SET_NO": 999,
    "REV_AT_EPOCH": 1219,
    "BSTAR": 0,
    "MEAN_MOTION_DOT": 1.06e-06,
    "MEAN_MOTION_DDOT": 0
  },
  {
    "OBJECT_NAME": "NOAA 21 (JPSS-2)",
    "OBJECT_ID": "2022-150A",
    "EPOCH": "2025-06-21T13:49:29.524224",
    "MEAN_MOTION": 14.19540257,
    "ECCENTRICITY": 0.0002465,
    "INCLINATION": 98.7275,
    "RA_OF_ASC_NODE": 111.276,
    "ARG_OF_PERICENTER": 117.0307,
    "MEAN_ANOMALY": 243.1121,
    "EPHEMERIS_TYPE": 0,
    "CLASSIFICATION_TYPE": "U",
    "NORAD_CAT_ID": 54234,
    "ELEMENT_SET_NO": 999,
    "REV_AT_EPOCH": 13538,
    "BSTAR": 3.5417e-05,
    "MEAN_MOTION_DOT": 3.1e-07,
    "MEAN_MOTION_DDOT": 0
  },
  {
    "OBJECT_NAME": "METEOSAT-12 (MTG-I1)",
    "OBJECT_ID": "2022-170C",
    "EPOCH": "2025-06-21T10:19:36.986016",
    "MEAN_MOTION": 1.00273642,
    "ECCENTRICITY": 9.45e-05,
    "INCLINATION": 0.6715,
    "RA_OF_ASC_NODE": 35.3416,
    "ARG_OF_PERICENTER": 71.0696,
    "MEAN_ANOMALY": 318.1023,
    "EPHEMERIS_TYPE": 0,
    "CLASSIFICATION_TYPE": "U",
    "NORAD_CAT_ID": 54743,
    "ELEMENT_SET_NO": 999,
    "REV_AT_EPOCH": 936,
    "BSTAR": 0,
    "MEAN_MOTION_DOT": 3e-08,
    "MEAN_MOTION_DDOT": 0
  },
  {
    "OBJECT_NAME": "TIANMU-1 03",
    "OBJECT_ID": "2023-039A",
    "EPOCH": "2025-06-21T19:38:06.879552",
    "MEAN_MOTION": 15.35494436,
    "ECCENTRICITY": 0.0002712,
    "INCLINATION": 97.5008,
    "RA_OF_ASC_NODE": 331.5775,
    "ARG_OF_PERICENTER": 333.7266,
    "MEAN_ANOMALY": 26.3839,
    "EPHEMERIS_TYPE": 0,
    "CLASSIFICATION_TYPE": "U",
    "NORAD_CAT_ID": 55973,
    "ELEMENT_SET_NO": 999,
    "REV_AT_EPOCH": 12533,
    "BSTAR": 0.00022844,
    "MEAN_MOTION_DOT": 7.797e-05,
    "MEAN_MOTION_DDOT": 0
  },
  {
    "OBJECT_NAME": "TIANMU-1 04",
    "OBJECT_ID": "2023-039B",
    "EPOCH": "2025-06-21T18:19:42.295008",
    "MEAN_MOTION": 15.35730616,
    "ECCENTRICITY": 0.0003446,
    "INCLINATION": 97.4936,
    "RA_OF_ASC_NODE": 330.8038,
    "ARG_OF_PERICENTER": 323.4382,
    "MEAN_ANOMALY": 36.6626,
    "EPHEMERIS_TYPE": 0,
    "CLASSIFICATION_TYPE": "U",
    "NORAD_CAT_ID": 55974,
    "ELEMENT_SET_NO": 999,
    "REV_AT_EPOCH": 12532,
    "BSTAR": 0.0002255,
    "MEAN_MOTION_DOT": 7.755e-05,
    "MEAN_MOTION_DDOT": 0
  },
  {
    "OBJECT_NAME": "TIANMU-1 05",
    "OBJECT_ID": "2023-039C",
    "EPOCH": "2025-06-21T18:54:48.536928",
    "MEAN_MOTION": 15.35470486,
    "ECCENTRICITY": 0.0003053,
    "INCLINATION": 97.4983,
    "RA_OF_ASC_NODE": 331.2939,
    "ARG_OF_PERICENTER": 2.1004,
    "MEAN_ANOMALY": 358.0251,
    "EPHEMERIS_TYPE": 0,
    "CLASSIFICATION_TYPE": "U",
    "NORAD_CAT_ID": 55975,
    "ELEMENT_SET_NO": 999,
    "REV_AT_EPOCH": 12531,
    "BSTAR": 0.00023401,
    "MEAN_MOTION_DOT": 7.983e-05,
    "MEAN_MOTION_DDOT": 0
  },
  {
    "OBJECT_NAME": "TIANMU-1 06",
    "OBJECT_ID": "2023-039D",
    "EPOCH": "2025-06-21T18:34:02.704224",
    "MEAN_MOTION": 15.35811613,
    "ECCENTRICITY": 0.0003259,
    "INCLINATION": 97.4996,
    "RA_OF_ASC_NODE": 331.6134,
    "ARG_OF_PERICENTER": 353.54,
    "MEAN_ANOMALY": 6.5801,
    "EPHEMERIS_TYPE": 0,
    "CLASSIFICATION_TYPE": "U",
    "NORAD_CAT_ID": 55976,
    "ELEMENT_SET_NO": 999,
    "REV_AT_EPOCH": 12532,
    "BSTAR": 0.00022769,
    "MEAN_MOTION_DOT": 7.851e-05,
    "MEAN_MOTION_DDOT": 0
  },
  {
    "OBJECT_NAME": "METEOR-M2 3",
    "OBJECT_ID": "2023-091A",
    "EPOCH": "2025-06-21T18:55:06.060576",
    "MEAN_MOTION": 14.24001847,
    "ECCENTRICITY": 0.0004889,
    "INCLINATION": 98.6605,
    "RA_OF_ASC_NODE": 229.0996,
    "ARG_OF_PERICENTER": 128.1399,
    "MEAN_ANOMALY": 232.0221,
    "EPHEMERIS_TYPE": 0,
    "CLASSIFICATION_TYPE": "U",
    "NORAD_CAT_ID": 57166,
    "ELEMENT_SET_NO": 999,
    "REV_AT_EPOCH": 10322,
    "BSTAR": 1.4219e-05,
    "MEAN_MOTION_DOT": -1.1e-07,
    "MEAN_MOTION_DDOT": 0
  },
  {
    "OBJECT_NAME": "TIANMU-1 07",
    "OBJECT_ID": "2023-101A",
    "EPOCH": "2025-06-21T19:26:30.867936",
    "MEAN_MOTION": 15.25238452,
    "ECCENTRICITY": 0.0003543,
    "INCLINATION": 97.3106,
    "RA_OF_ASC_NODE": 226.6066,
    "ARG_OF_PERICENTER": 358.1989,
    "MEAN_ANOMALY": 1.9236,
    "EPHEMERIS_TYPE": 0,
    "CLASSIFICATION_TYPE": "U",
    "NORAD_CAT_ID": 57399,
    "ELEMENT_SET_NO": 999,
    "REV_AT_EPOCH": 10662,
    "BSTAR": 0.00017428,
    "MEAN_MOTION_DOT": 4.309e-05,
    "MEAN_MOTION_DDOT": 0
  },
  {
    "OBJECT_NAME": "TIANMU-1 08",
    "OBJECT_ID": "2023-101B",
    "EPOCH": "2025-06-21T20:12:18.770688",
    "MEAN_MOTION": 15.25241404,
    "ECCENTRICITY": 0.0005602,
    "INCLINATION": 97.3096,
    "RA_OF_ASC_NODE": 226.4637,
    "ARG_OF_PERICENTER": 353.7232,
    "MEAN_ANOMALY": 6.3935,
    "EPHEMERIS_TYPE": 0,
    "CLASSIFICATION_TYPE": "U",
    "NORAD_CAT_ID": 57400,
    "ELEMENT_SET_NO": 999,
    "REV_AT_EPOCH": 10662,
    "BSTAR": 0.0001739,
    "MEAN_MOTION_DOT": 4.301e-05,
    "MEAN_MOTION_DDOT": 0
  },
  {
    "OBJECT_NAME": "TIANMU-1 09",
    "OBJECT_ID": "2023-101C",
    "EPOCH": "2025-06-21T19:49:22.703808",
    "MEAN_MOTION": 15.25179783,
    "ECCENTRICITY": 0.0004782,
    "INCLINATION": 97.305,
    "RA_OF_ASC_NODE": 226.0689,
    "ARG_OF_PERICENTER": 356.2598,
    "MEAN_ANOMALY": 3.8603,
    "EPHEMERIS_TYPE": 0,
    "CLASSIFICATION_TYPE": "U",
    "NORAD_CAT_ID": 57401,
    "ELEMENT_SET_NO": 999,
    "REV_AT_EPOCH": 10662,
    "BSTAR": 0.00018102,
    "MEAN_MOTION_DOT": 4.471e-05,
    "MEAN_MOTION_DDOT": 0
  },
  {
    "OBJECT_NAME": "TIANMU-1 10",
    "OBJECT_ID": "2023-101D",
    "EPOCH": "2025-06-21T19:02:03.417504",
    "MEAN_MOTION": 15.25163466,
    "ECCENTRICITY": 0.0006584,
    "INCLINATION": 97.3132,
    "RA_OF_ASC_NODE": 226.7039,
    "ARG_OF_PERICENTER": 350.795,
    "MEAN_ANOMALY": 9.3166,
    "EPHEMERIS_TYPE": 0,
    "CLASSIFICATION_TYPE": "U",
    "NORAD_CAT_ID": 57402,
    "ELEMENT_SET_NO": 999,
    "REV_AT_EPOCH": 10661,
    "BSTAR": 0.00017331,
    "MEAN_MOTION_DOT": 4.339e-05,
    "MEAN_MOTION_DDOT": 3.7944e-09
  },
  {
    "OBJECT_NAME": "FENGYUN 3F",
    "OBJECT_ID": "2023-111A",
    "EPOCH": "2025-06-21T19:39:11.532672",
    "MEAN_MOTION": 14.20048023,
    "ECCENTRICITY": 0.0002023,
    "INCLINATION": 98.7267,
    "RA_OF_ASC_NODE": 243.7123,
    "ARG_OF_PERICENTER": 99.3504,
    "MEAN_ANOMALY": 260.7901,
    "EPHEMERIS_TYPE": 0,
    "CLASSIFICATION_TYPE": "U",
    "NORAD_CAT_ID": 57490,
    "ELEMENT_SET_NO": 999,
    "REV_AT_EPOCH": 9772,
    "BSTAR": 3.4641e-05,
    "MEAN_MOTION_DOT": 3e-07,
    "MEAN_MOTION_DDOT": 0
  }
]