FENGYUN 3E              
1 49008U 21062A   25172.82773451  .00000001  00000+0  21282-4 0  9995
2 49008  98.7415 175.4072 0002621  65.8249 294.3201 14.19867943205446
GOES 18                 
1 51850U 22021A   25172.76044471  .00000106  00000+0  00000+0 0  9991
2 51850   0.0454 162.0266 0000423  40.0764 204.8509  1.00272166 12193
NOAA 21 (JPSS-2)        
1 54234U 22150A   25172.57603616  .00000031  00000+0  35417-4 0  9996
2 54234  98.7275 111.2760 0002465 117.0307 243.1121 14.19540257135384
METEOSAT-12 (MTG-I1)    
1 54743U 22170C   25172.43028919  .00000003  00000+0  00000+0 0  9999
2 54743   0.6715  35.3416 0000945  71.0696 318.1023  1.00273642  9364
TIANMU-1 03             
1 55973U 23039A   25172.81813518  .00007797  00000+0  22844-3 0  9990
2 55973  97.5008 331.5775 0002712 333.7266  26.3839 15.35494436125332
TIANMU-1 04             
1 55974U 23039B   25172.76368397  .00007755  00000+0  22550-3 0  9993
2 55974  97.4936 330.8038 0003446 323.4382  36.6626 15.35730616125326
TIANMU-1 05             
1 55975U 23039C   25172.78806177  .00007983  00000+0  23401-3 0  9998
2 55975  97.4983 331.2939 0003053   2.1004 358.0251 15.35470486125310
TIANMU-1 06             
1 55976U 23039D   25172.77364241  .00007851  00000+0  22769-3 0  9999
2 55976  97.4996 331.6134 0003259 353.5400   6.5801 15.35811613125325
METEOR-M2 3             
1 57166U 23091A   25172.78826459 -.00000011  00000+0  14219-4 0  9999
2 57166  98.6605 229.0996 0004889 128.1399 232.0221 14.24001847103221
TIANMU-1 07             
1 57399U 23101A   25172.81007949  .00004309  00000+0  17428-3 0  9995
2 57399  97.3106 226.6066 0003543 358.1989   1.9236 15.25238452106620
TIANMU-1 08             
1 57400U 23101B   25172.84188392  .00004301  00000+0  17390-3 0  9993
2 57400  97.3096 226.4637 0005602 353.7232   6.3935 15.25241404106629
TIANMU-1 09             
1 57401U 23101C   25172.82595722  .00004471  00000+0  18102-3 0  9991
2 57401  97.3050 226.0689 0004782 356.2598   3.8603 15.25179783106628
TIANMU-1 10             
1 57402U 23101D   25172.79309511  .00004339  37944-8  17331-3 0  9999
2 57402  97.3132 226.7039 0006584 350.7950   9.3166 15.25163466106614
FENGYUN 3F              
1 57490U 23111A   25172.81888348  .00000030  00000+0  34641-4 0  9992
2 57490  98.7267 243.7123 0002023  99.3504 260.7901 14.20048023 97729
